{"fetched_at":"2026-03-29T16:36:15Z","count":15609,"tles":[{"name":"STARLINK-32411","line1":"1 61547U 24184R   26087.80992817  .00002079  00000+0  82290-4 0  9991","line2":"2 61547  53.1595 285.1798 0001282  88.4718 271.6429 15.30200187 81436","category":"Starlink"}]}