{
  "norad_id": 61547,
  "name": "STARLINK-32411",
  "history": [
    {
      "epoch": "2026-03-28T19:26:17.793888Z",
      "apogee_km": 476.09359046941427,
      "perigee_km": 474.33543167276366,
      "latitude_deg": -5.1698862200182715e-05,
      "longitude_deg": 167.38058275818398,
      "height_km": 476.0890796475104,
      "semi_major_axis_km": 6853.351511071089,
      "eccentricity": 0.00012827,
      "inclination_deg": 53.1595,
      "raan_deg": 285.1798,
      "arg_perigee_deg": 88.4718,
      "mean_anomaly_deg": 271.6429,
      "mean_motion_rev_day": 15.30200187
    }
  ]
}